NORAD_CAT_ID,OBJECT_NAME,OBJECT_TYPE,EPOCH,MEAN_MOTION,ECCENTRICITY,INCLINATION,RA_OF_ASC_NODE,ARG_OF_PERICENTER,MEAN_ANOMALY,BSTAR,MEAN_MOTION_DOT,MEAN_MOTION_DDOT,TLE_LINE0,TLE_LINE1,TLE_LINE2,SEMIMAJOR_AXIS,PERIOD,APOGEE,PERIGEE,DECAYED
55638.0,STARLINK-5507,PAYLOAD,2023-09-03 13:39:47,14.98329449,0.0002957,70.0011,359.3247,269.6173,90.4647,6.8663e-06,-1.1e-07,0.0,0 STARLINK-5507,1 55638U 23021L   23246.56930167 -.00000011  00000-0  68663-5 0  9996,2 55638  70.0011 359.3247 0002957 269.6173  90.4647 14.98329449 30778,6950.195,96.107,574.115,570.004,0.0
55638.0,STARLINK-5507,PAYLOAD,2023-09-04 12:05:41,14.98328106,0.0003153,70.0004,356.9681,267.7223,92.3575,-0.00012491,-1.583e-05,0.0,0 STARLINK-5507,1 55638U 23021L   23247.50394697 -.00001583  00000-0 -12491-3 0  9995,2 55638  70.0004 356.9681 0003153 267.7223  92.3575 14.98328106 30915,6950.199,96.107,574.255,569.872,0.0
55638.0,STARLINK-5507,PAYLOAD,2023-09-05 02:30:53,14.98333795,0.000316,70.0006,355.4532,268.3277,91.7521,-4.6868e-05,-6.52e-06,0.0,0 STARLINK-5507,1 55638U 23021L   23248.10478086 -.00000652  00000-0 -46868-4 0  9999,2 55638  70.0006 355.4532 0003160 268.3277  91.7521 14.98333795 30701,6950.181,96.107,574.242,569.85,0.0
55638.0,STARLINK-5507,PAYLOAD,2023-09-05 07:19:17,14.98319076,0.0003061,70.0006,354.948,268.6903,91.3905,0.00016722,1.902e-05,0.0,0 STARLINK-5507,1 55638U 23021L   23248.30506489  .00001902  00000-0  16722-3 0  9992,2 55638  70.0006 354.9480 0003061 268.6903  91.3905 14.98319076 30737,6950.227,96.108,574.219,569.964,0.0
55638.0,STARLINK-5507,PAYLOAD,2023-09-06 00:56:45,14.98328991,0.0003115,70.0008,353.0963,267.7796,92.3007,0.00011204,1.244e-05,0.0,0 STARLINK-5507,1 55638U 23021L   23249.03941883  .00001244  00000-0  11204-3 0  9993,2 55638  70.0008 353.0963 0003115 267.7796  92.3007 14.98328991 30847,6950.196,96.107,574.226,569.896,0.0
55638.0,STARLINK-5507,PAYLOAD,2023-09-06 12:09:42,14.98329494,0.0003118,70.0007,351.9181,267.7238,92.3564,0.00010074,1.109e-05,0.0,0 STARLINK-5507,1 55638U 23021L   23249.50673891  .00001109  00000-0  10074-3 0  9990,2 55638  70.0007 351.9181 0003118 267.7238  92.3564 14.98329494 31218,6950.194,96.107,574.227,569.892,0.0
55638.0,STARLINK-5507,PAYLOAD,2023-09-07 08:59:27,14.98332153,0.0003077,70.0001,349.7303,268.9212,91.1594,1.7747e-05,1.19e-06,0.0,0 STARLINK-5507,1 55638U 23021L   23250.37461827  .00000119  00000-0  17747-4 0  9996,2 55638  70.0001 349.7303 0003077 268.9212  91.1594 14.98332153 31049,6950.186,96.107,574.19,569.913,0.0
55638.0,STARLINK-5507,PAYLOAD,2023-09-07 17:00:07,14.98334114,0.0003161,70.0002,348.8893,270.0675,90.0122,-3.4168e-05,-5.01e-06,0.0,0 STARLINK-5507,1 55638U 23021L   23250.70841773 -.00000501  00000-0 -34168-4 0  9998,2 55638  70.0002 348.8893 0003161 270.0675  90.0122 14.98334114 31397,6950.18,96.107,574.242,569.848,0.0
55638.0,STARLINK-5507,PAYLOAD,2023-09-08 10:37:36,14.98330955,0.0003015,70.0004,347.037,267.9514,92.13,-3.5926e-05,-5.22e-06,0.0,0 STARLINK-5507,1 55638U 23021L   23251.44277916 -.00000522  00000-0 -35926-4 0  9998,2 55638  70.0004 347.0370 0003015 267.9514  92.1300 14.98330955 31205,6950.19,96.107,574.15,569.959,0.0
55638.0,STARLINK-5507,PAYLOAD,2023-09-08 13:49:52,14.98329906,0.0003029,70.0006,346.7005,270.844,89.2372,-3.5178e-05,-5.13e-06,0.0,0 STARLINK-5507,1 55638U 23021L   23251.57629994 -.00000513  00000-0 -35178-4 0  9998,2 55638  70.0006 346.7005 0003029 270.8440  89.2372 14.98329906 31529,6950.193,96.107,574.163,569.953,0.0
55638.0,STARLINK-5507,PAYLOAD,2023-09-08 15:26:00,14.98331542,0.0003016,70.0007,346.5323,271.2504,88.8309,-1.7446e-05,-3.01e-06,0.0,0 STARLINK-5507,1 55638U 23021L   23251.64305839 -.00000301  00000-0 -17446-4 0  9998,2 55638  70.0007 346.5323 0003016 271.2504  88.8309 14.98331542 31538,6950.188,96.107,574.149,569.957,0.0
55638.0,STARLINK-5507,PAYLOAD,2023-09-09 10:39:37,14.9832748,0.0002916,70.0014,344.5142,267.2182,92.8643,-1.1501e-05,-2.3e-06,0.0,0 STARLINK-5507,1 55638U 23021L   23252.44418031 -.00000230  00000-0 -11501-4 0  9993,2 55638  70.0014 344.5142 0002916 267.2182  92.8643 14.98327480 31350,6950.201,96.107,574.092,570.039,0.0
55638.0,STARLINK-5507,PAYLOAD,2023-09-09 13:51:53,14.98327307,0.000293,70.0012,344.177,268.987,91.0953,8.902e-06,1.3e-07,0.0,0 STARLINK-5507,1 55638U 23021L   23252.57770015  .00000013  00000-0  89020-5 0  9999,2 55638  70.0012 344.1770 0002930 268.9870  91.0953 14.98327307 31677,6950.201,96.107,574.103,570.03,0.0
55638.0,STARLINK-5507,PAYLOAD,2023-09-10 10:41:37,14.98330018,0.0003003,70.001,341.9889,269.1967,90.8848,1.2076e-05,5.1e-07,0.0,0 STARLINK-5507,1 55638U 23021L   23253.44557802  .00000051  00000-0  12076-4 0  9991,2 55638  70.0010 341.9889 0003003 269.1967  90.8848 14.98330018 31508,6950.193,96.107,574.145,569.971,0.0
55638.0,STARLINK-5507,PAYLOAD,2023-09-10 13:53:53,14.98331755,0.0003077,70.0007,341.6514,268.4044,91.6763,3.5624e-05,3.32e-06,0.0,0 STARLINK-5507,1 55638U 23021L   23253.57909593  .00000332  00000-0  35624-4 0  9999,2 55638  70.0007 341.6514 0003077 268.4044  91.6763 14.98331755 31824,6950.187,96.107,574.191,569.914,0.0
55638.0,STARLINK-5507,PAYLOAD,2023-09-11 10:43:39,14.98322766,0.0003214,70.0006,339.4634,268.8561,91.223,3.1714e-06,-5.5e-07,0.0,0 STARLINK-5507,1 55638U 23021L   23254.44698217 -.00000055  00000-0  31714-5 0  9994,2 55638  70.0006 339.4634 0003214 268.8561  91.2230 14.98322766 31650,6950.215,96.107,574.314,569.846,0.0
55638.0,STARLINK-5507,PAYLOAD,2023-09-11 13:55:55,14.98328869,0.0002958,70.0013,339.1277,266.0763,94.0058,3.6387e-06,-5e-07,0.0,0 STARLINK-5507,1 55638U 23021L   23254.58049840 -.00000050  00000-0  36387-5 0  9997,2 55638  70.0013 339.1277 0002958 266.0763  94.0058 14.98328869 31970,6950.196,96.107,574.117,570.006,0.0
55638.0,STARLINK-5507,PAYLOAD,2023-09-11 15:32:03,14.9832867,0.000291,70.0014,338.9594,264.3151,95.7676,1.9337e-05,1.38e-06,0.0,0 STARLINK-5507,1 55638U 23021L   23254.64725816  .00000138  00000-0  19337-4 0  9999,2 55638  70.0014 338.9594 0002910 264.3151  95.7676 14.98328670 31682,6950.197,96.107,574.085,570.039,0.0
55638.0,STARLINK-5507,PAYLOAD,2023-09-12 12:21:47,14.9833296,0.0002847,70.0017,336.7722,259.0956,100.9882,2.5624e-05,2.13e-06,0.0,0 STARLINK-5507,1 55638U 23021L   23255.51513416  .00000213  00000-0  25624-4 0  9997,2 55638  70.0017 336.7722 0002847 259.0956 100.9882 14.98332960 32111,6950.184,96.107,574.027,570.07,0.0
55638.0,STARLINK-5507,PAYLOAD,2023-09-12 15:34:03,14.9833391,0.0002786,70.0017,336.4342,269.4555,90.6285,3.9753e-05,3.81e-06,0.0,0 STARLINK-5507,1 55638U 23021L   23255.64865373  .00000381  00000-0  39753-4 0  9997,2 55638  70.0017 336.4342 0002786 269.4555  90.6285 14.98333910 31834,6950.181,96.107,573.982,570.109,0.0
55638.0,STARLINK-5507,PAYLOAD,2023-09-13 12:23:47,14.98345559,0.0002314,70.0013,334.245,262.3131,97.7765,-4.0149e-05,-5.72e-06,0.0,0 STARLINK-5507,1 55638U 23021L   23256.51652531 -.00000572  00000-0 -40149-4 0  9999,2 55638  70.0013 334.2450 0002314 262.3131  97.7765 14.98345559 32266,6950.145,96.106,573.618,570.402,0.0
55638.0,STARLINK-5507,PAYLOAD,2023-09-13 15:36:03,14.98342598,0.0002308,70.0014,333.9087,264.8242,95.2654,9.9504e-05,1.095e-05,0.0,0 STARLINK-5507,1 55638U 23021L   23256.65004264  .00001095  00000-0  99504-4 0  9996,2 55638  70.0014 333.9087 0002308 264.8242  95.2654 14.98342598 31980,6950.154,96.106,573.623,570.415,0.0
55638.0,STARLINK-5507,PAYLOAD,2023-09-14 10:49:42,14.98318379,0.0003261,70.0004,331.8896,272.9933,87.0853,-0.00018678,-2.32e-05,0.0,0 STARLINK-5507,1 55638U 23021L   23257.45118713 -.00002320  00000-0 -18678-3 0  9996,2 55638  70.0004 331.8896 0003261 272.9933  87.0853 14.98318379 32105,6950.229,96.108,574.36,569.827,0.0
55638.0,STARLINK-5507,PAYLOAD,2023-09-14 12:25:50,14.98317757,0.0003206,70.0006,331.7212,272.9376,87.1416,-0.0001854,-2.304e-05,0.0,0 STARLINK-5507,1 55638U 23021L   23257.51794817 -.00002304  00000-0 -18540-3 0  9998,2 55638  70.0006 331.7212 0003206 272.9376  87.1416 14.98317757 32417,6950.231,96.108,574.324,569.868,0.0
55638.0,STARLINK-5507,PAYLOAD,2023-09-14 14:01:58,14.98317603,0.0003207,70.0005,331.5529,272.9685,87.1107,-0.00018386,-2.285e-05,0.0,0 STARLINK-5507,1 55638U 23021L   23257.58470867 -.00002285  00000-0 -18386-3 0  9997,2 55638  70.0005 331.5529 0003207 272.9685  87.1107 14.98317603 32427,6950.231,96.108,574.325,569.867,0.0
55638.0,STARLINK-5507,PAYLOAD,2023-09-15 10:51:43,14.98327631,0.0003305,70.0,329.3638,271.2848,88.7932,-6.8201e-05,-9.07e-06,0.0,0 STARLINK-5507,1 55638U 23021L   23258.45258269 -.00000907  00000-0 -68201-4 0  9995,2 55638  70.0000 329.3638 0003305 271.2848  88.7932 14.98327631 32256,6950.2,96.107,574.362,569.768,0.0
55638.0,STARLINK-5507,PAYLOAD,2023-09-15 12:27:51,14.98330743,0.0003217,69.9998,329.1944,273.585,86.4941,-5.567e-05,-7.57e-06,0.0,0 STARLINK-5507,1 55638U 23021L   23258.51934046 -.00000757  00000-0 -55670-4 0  9995,2 55638  69.9998 329.1944 0003217 273.5850  86.4941 14.98330743 32564,6950.191,96.107,574.291,569.82,0.0
55638.0,STARLINK-5507,PAYLOAD,2023-09-15 22:04:38,14.9833707,0.0003153,70.0003,328.1856,275.9148,84.1651,-4.7444e-05,-6.59e-06,0.0,0 STARLINK-5507,1 55638U 23021L   23258.91989545 -.00000659  00000-0 -47444-4 0  9994,2 55638  70.0003 328.1856 0003153 275.9148  84.1651 14.98337070 32327,6950.171,96.107,574.227,569.845,0.0
55638.0,STARLINK-5507,PAYLOAD,2023-09-16 14:05:59,14.98329129,0.0003145,70.0002,326.5022,273.9096,86.1704,0.00025935,3.003e-05,0.0,0 STARLINK-5507,1 55638U 23021L   23259.58749408  .00003003  00000-0  25935-3 0  9994,2 55638  70.0002 326.5022 0003145 273.9096  86.1704 14.98329129 32725,6950.196,96.107,574.246,569.875,0.0
55638.0,STARLINK-5507,PAYLOAD,2023-09-16 22:06:40,14.98327522,0.0003196,70.0006,325.6607,275.8613,84.2181,0.00012507,1.4e-05,0.0,0 STARLINK-5507,1 55638U 23021L   23259.92129883  .00001400  00000-0  12507-3 0  9991,2 55638  70.0006 325.6607 0003196 275.8613  84.2181 14.98327522 32475,6950.201,96.107,574.287,569.844,0.0
